ONEWEB-0473             
1 51653U 22012AH  26164.20673174 -.00000568  00000+0 -16625-2 0  9998
2 51653  87.8829  37.0691 0001811  78.6067 281.5264 13.10371594208782
ONEWEB-0474             
1 51654U 22012AJ  26164.19843458 -.00000161  00000+0 -49787-3 0  9996
2 51654  87.8842  37.0549 0001641  72.8895 287.2412 13.10370115208771
ONEWEB-0475             
1 51655U 22012AK  26164.27366522  .00000065  00000+0  13492-3 0  9993
2 51655  87.9136   6.6511 0001630  67.3026 292.8278 13.17648860213177
ONEWEB-0490             
1 54113U 22138A   26164.11629403 -.00000005  00000+0 -45981-4 0  9992
2 54113  87.9170 305.7779 0001680  99.9971 260.1352 13.19724081176295
ONEWEB-0492             
1 54114U 22138B   26164.14157323  .00000003  00000+0 -25063-4 0  9999
2 54114  87.9164 305.7745 0001757 105.9714 254.1613 13.19725533176308
ONEWEB-0495             
1 54115U 22138C   26164.11945291 -.00000008  00000+0 -52563-4 0  9997
2 54115  87.9166 305.7814 0001216 102.8545 257.2724 13.19723830176288
ONEWEB-0497             
1 54116U 22138D   26164.13208850  .00000020  00000+0  18773-4 0  9990
2 54116  87.9169 305.7706 0001782  99.5823 260.5511 13.19724200176273
ONEWEB-0499             
1 54117U 22138E   26164.11550787  .00000074  00000+0  15179-3 0  9993
2 54117  87.9163 305.7833 0001606  95.2655 264.8661 13.19726813176286
ONEWEB-0500             
1 54118U 22138F   26164.11786938  .00000008  00000+0 -13086-4 0  9997
2 54118  87.9173 305.7767 0001914 100.1323 260.0026 13.19723758176293
ONEWEB-0501             
1 54119U 22138G   26164.14787576 -.00000051  00000+0 -16054-3 0  9996
2 54119  87.9172 305.7704 0001401  99.3121 260.8170 13.19723130176270
ONEWEB-0502             
1 54120U 22138H   26164.13365810  .00000026  00000+0  32835-4 0  9996
2 54120  87.9174 305.7621 0001639  94.1087 266.0233 13.19723955176294
ONEWEB-0503             
1 54121U 22138J   26164.12261112  .00000037  00000+0  59382-4 0  9994
2 54121  87.9175 305.7701 0001941  90.4528 269.6828 13.19724168176285
ONEWEB-0504             
1 54122U 22138K   26164.10997936  .00000061  00000+0  11983-3 0  9994
2 54122  87.9174 305.7776 0001659  93.1140 267.0182 13.19724854176291
ONEWEB-0505             
1 54123U 22138L   26163.95519097  .00000034  00000+0  53093-4 0  9994
2 54123  87.9171 305.8096 0001392  94.4813 265.6479 13.19725779176256
ONEWEB-0506             
1 54124U 22138M   26164.30898285 -.00000035  00000+0 -11934-3 0  9994
2 54124  87.9174 305.7358 0001529  98.4044 261.7262 13.19723970176294
ONEWEB-0507             
1 54125U 22138N   26164.10208146  .00000044  00000+0  78337-4 0  9993
2 54125  87.9163 305.7896 0001643  99.8877 260.2442 13.19725205176316
ONEWEB-0508             
1 54126U 22138P   26163.94727817 -.00000449  00000+0 -11545-2 0  9993
2 54126  87.9167 305.8203 0001383 107.8799 252.2485 13.19724952176279
ONEWEB-0509             
1 54127U 22138Q   26164.14944770 -.00000046  00000+0 -14737-3 0  9996
2 54127  87.9175 305.7689 0001677  98.6818 261.4505 13.19719273176276
ONEWEB-0510             
1 54128U 22138R   26164.26842653  .00000042  00000+0  70592-4 0  9993
2 54128  87.9191 275.2167 0002423  97.1714 262.9695 13.20772459178765
ONEWEB-0511             
1 54129U 22138S   26164.14630880  .00000017  00000+0  11099-4 0  9997
2 54129  87.9171 305.7724 0001775  89.0270 271.1066 13.19726084176301
ONEWEB-0512             
1 54130U 22138T   26163.91095177 -.00000074  00000+0 -21695-3 0  9994
2 54130  87.9165 305.8246 0001529  92.0655 268.0653 13.19724572176244
ONEWEB-0513             
1 54131U 22138U   26164.14568453 -.00000054  00000+0 -16580-3 0  9998
2 54131  87.9172 305.7224 0001260  69.2987 290.8281 13.20268434176189
ONEWEB-0514             
1 54132U 22138V   26164.30583137 -.00000004  00000+0 -43530-4 0  9994
2 54132  87.9176 305.7393 0001977  96.9650 263.1708 13.19724845176313
ONEWEB-0515             
1 54133U 22138W   26164.25494785  .00000136  00000+0  30193-3 0  9993
2 54133  87.9197 275.2136 0002659 113.5888 246.5524 13.20770562178783
ONEWEB-0516             
1 54134U 22138X   26164.12892183  .00000003  00000+0 -24326-4 0  9990
2 54134  87.9164 305.7813 0001780 102.1309 258.0023 13.19724496176294
ONEWEB-0517             
1 54135U 22138Y   26163.95675771  .00000044  00000+0  76552-4 0  9995
2 54135  87.9172 305.8075 0001977  89.3114 270.8245 13.19724217176270
ONEWEB-0518             
1 54136U 22138Z   26164.12736805  .00000038  00000+0  61373-4 0  9990
2 54136  87.9164 305.7836 0001798 104.4880 255.6452 13.19727409176295
ONEWEB-0519             
1 54137U 22138AA  26164.30426356 -.00000013  00000+0 -65754-4 0  9990
2 54137  87.9177 305.7391 0001923  92.0425 268.0928 13.19726418176322
ONEWEB-0520             
1 54138U 22138AB  26163.95992402  .00000029  00000+0  40742-4 0  9996
2 54138  87.9173 305.8079 0001571  99.3639 260.7672 13.19724722176263
ONEWEB-0521             
1 54139U 22138AC  26164.14472179  .00000012  00000+0 -25193-5 0  9990
2 54139  87.9175 305.7597 0001983  92.2105 267.9255 13.19724911176230
