OBJECT_NAME,OBJECT_ID,EPOCH,MEAN_MOTION,ECCENTRICITY,INCLINATION,RA_OF_ASC_NODE,ARG_OF_PERICENTER,MEAN_ANOMALY,EPHEMERIS_TYPE,CLASSIFICATION_TYPE,NORAD_CAT_ID,ELEMENT_SET_NO,REV_AT_EPOCH,BSTAR,MEAN_MOTION_DOT,MEAN_MOTION_DDOT
ONEWEB-0473,2022-012AH,2026-06-13T04:57:41.622336,13.10371594,.00018116,87.8829,37.0691,78.6067,281.5264,0,U,51653,999,20878,-.16625292E-2,-.568E-5,0
ONEWEB-0474,2022-012AJ,2026-06-13T04:45:44.747712,13.10370115,.00016413,87.8842,37.0549,72.8895,287.2412,0,U,51654,999,20877,-.4978706E-3,-.161E-5,0
ONEWEB-0475,2022-012AK,2026-06-13T06:34:04.675008,13.17648860,.00016305,87.9136,6.6511,67.3026,292.8278,0,U,51655,999,21317,.13491686E-3,.65E-6,0
ONEWEB-0490,2022-138A,2026-06-13T02:47:27.804192,13.19724081,.00016805,87.9170,305.7779,99.9971,260.1352,0,U,54113,999,17629,-.45980738E-4,-.5E-7,0
ONEWEB-0492,2022-138B,2026-06-13T03:23:51.927072,13.19725533,.00017578,87.9164,305.7745,105.9714,254.1613,0,U,54114,999,17630,-.25062634E-4,.3E-7,0
ONEWEB-0495,2022-138C,2026-06-13T02:52:00.731424,13.19723830,.00012168,87.9166,305.7814,102.8545,257.2724,0,U,54115,999,17628,-.52562903E-4,-.8E-7,0
ONEWEB-0497,2022-138D,2026-06-13T03:10:12.446400,13.19724200,.00017826,87.9169,305.7706,99.5823,260.5511,0,U,54116,999,17627,.18773494E-4,.2E-6,0
ONEWEB-0499,2022-138E,2026-06-13T02:46:19.879968,13.19726813,.0001606,87.9163,305.7833,95.2655,264.8661,0,U,54117,999,17628,.15179274E-3,.74E-6,0
ONEWEB-0500,2022-138F,2026-06-13T02:49:43.914432,13.19723758,.00019143,87.9173,305.7767,100.1323,260.0026,0,U,54118,999,17629,-.1308608E-4,.8E-7,0
ONEWEB-0501,2022-138G,2026-06-13T03:32:56.465664,13.19723130,.00014014,87.9172,305.7704,99.3121,260.8170,0,U,54119,999,17627,-.16054189E-3,-.51E-6,0
ONEWEB-0502,2022-138H,2026-06-13T03:12:28.059840,13.19723955,.00016394,87.9174,305.7621,94.1087,266.0233,0,U,54120,999,17629,.32835455E-4,.26E-6,0
ONEWEB-0503,2022-138J,2026-06-13T02:56:33.600768,13.19724168,.00019417,87.9175,305.7701,90.4528,269.6828,0,U,54121,999,17628,.59382366E-4,.37E-6,0
ONEWEB-0504,2022-138K,2026-06-13T02:38:22.216704,13.19724854,.0001659,87.9174,305.7776,93.1140,267.0182,0,U,54122,999,17629,.11983281E-3,.61E-6,0
ONEWEB-0505,2022-138L,2026-06-12T22:55:28.499808,13.19725779,.0001392,87.9171,305.8096,94.4813,265.6479,0,U,54123,999,17625,.53093429E-4,.34E-6,0
ONEWEB-0506,2022-138M,2026-06-13T07:24:56.118240,13.19723970,.00015296,87.9174,305.7358,98.4044,261.7262,0,U,54124,999,17629,-.1193449E-3,-.35E-6,0
ONEWEB-0507,2022-138N,2026-06-13T02:26:59.838144,13.19725205,.00016438,87.9163,305.7896,99.8877,260.2442,0,U,54125,999,17631,.78336688E-4,.44E-6,0
ONEWEB-0508,2022-138P,2026-06-12T22:44:04.833888,13.19724952,.00013836,87.9167,305.8203,107.8799,252.2485,0,U,54126,999,17627,-.11544874E-2,-.449E-5,0
ONEWEB-0509,2022-138Q,2026-06-13T03:35:12.281280,13.19719273,.00016775,87.9175,305.7689,98.6818,261.4505,0,U,54127,999,17627,-.14736571E-3,-.46E-6,0
ONEWEB-0510,2022-138R,2026-06-13T06:26:32.052192,13.20772459,.00024232,87.9191,275.2167,97.1714,262.9695,0,U,54128,999,17876,.70591516E-4,.42E-6,0
ONEWEB-0511,2022-138S,2026-06-13T03:30:41.080320,13.19726084,.00017753,87.9171,305.7724,89.0270,271.1066,0,U,54129,999,17630,.11098885E-4,.17E-6,0
ONEWEB-0512,2022-138T,2026-06-12T21:51:46.232928,13.19724572,.00015298,87.9165,305.8246,92.0655,268.0653,0,U,54130,999,17624,-.21695021E-3,-.74E-6,0
ONEWEB-0513,2022-138U,2026-06-13T03:29:47.143392,13.20268434,.00012605,87.9172,305.7224,69.2987,290.8281,0,U,54131,999,17618,-.16579665E-3,-.54E-6,0
ONEWEB-0514,2022-138V,2026-06-13T07:20:23.830368,13.19724845,.00019775,87.9176,305.7393,96.9650,263.1708,0,U,54132,999,17631,-.43529789E-4,-.4E-7,0
ONEWEB-0515,2022-138W,2026-06-13T06:07:07.494240,13.20770562,.00026598,87.9197,275.2136,113.5888,246.5524,0,U,54133,999,17878,.30192795E-3,.136E-5,0
ONEWEB-0516,2022-138X,2026-06-13T03:05:38.846112,13.19724496,.00017805,87.9164,305.7813,102.1309,258.0023,0,U,54134,999,17629,-.24326025E-4,.3E-7,0
ONEWEB-0517,2022-138Y,2026-06-12T22:57:43.866144,13.19724217,.00019774,87.9172,305.8075,89.3114,270.8245,0,U,54135,999,17627,.76551979E-4,.44E-6,0
ONEWEB-0518,2022-138Z,2026-06-13T03:03:24.599520,13.19727409,.00017988,87.9164,305.7836,104.4880,255.6452,0,U,54136,999,17629,.613728E-4,.38E-6,0
ONEWEB-0519,2022-138AA,2026-06-13T07:18:08.371584,13.19726418,.00019235,87.9177,305.7391,92.0425,268.0928,0,U,54137,999,17632,-.65753928E-4,-.13E-6,0
ONEWEB-0520,2022-138AB,2026-06-12T23:02:17.435328,13.19724722,.00015717,87.9173,305.8079,99.3639,260.7672,0,U,54138,999,17626,.40742038E-4,.29E-6,0
ONEWEB-0521,2022-138AC,2026-06-13T03:28:23.962656,13.19724911,.00019831,87.9175,305.7597,92.2105,267.9255,0,U,54139,999,17623,-.2519255E-5,.12E-6,0
